{
  "type": "FeatureCollection",
  "features": [
    {
      "type": "Feature",
      "properties": {
        "norad_id": 39544,
        "name": "FENGYUN 1C DEB",
        "group": "fengyun-1c-debris",
        "lat": -20.947846387533012,
        "lon": -121.34581380756184,
        "alt_km": 840.4547422074484,
        "timestamp": "2025-12-22T11:33:20.729800+00:00",
        "meta_object_name": "FENGYUN 1C DEB",
        "meta_object_id": "1999-025EWM",
        "meta_epoch": "2025-12-18T10:16:20.672256",
        "meta_mean_motion": 14.05533723,
        "meta_eccentricity": 0.00544071,
        "meta_inclination": 98.7417,
        "meta_ra_of_asc_node": 231.3683,
        "meta_arg_of_pericenter": 353.4562,
        "meta_mean_anomaly": 6.589,
        "meta_ephemeris_type": 0,
        "meta_classification_type": "U",
        "meta_norad_cat_id": 39544,
        "meta_element_set_no": 999,
        "meta_rev_at_epoch": 56935,
        "meta_bstar": 0.00032895311,
        "meta_mean_motion_dot": 4.99e-06,
        "meta_mean_motion_ddot": 0,
        "tle_line1": "1 39544U 99025EWM 25352.42801704  .00000499  00000+0  32895-3 0  9994",
        "tle_line2": "2 39544  98.7417 231.3683 0054407 353.4562   6.5890 14.05533723569356"
      },
      "geometry": {
        "type": "Point",
        "coordinates": [
          -121.34581380756184,
          -20.947846387533012
        ]
      }
    },
    {
      "type": "Feature",
      "properties": {
        "norad_id": 40688,
        "name": "FENGYUN 1C DEB",
        "group": "fengyun-1c-debris",
        "lat": -70.50701647632974,
        "lon": -60.90227756987811,
        "alt_km": 996.4654143231246,
        "timestamp": "2025-12-22T11:33:20.729810+00:00",
        "meta_object_name": "FENGYUN 1C DEB",
        "meta_object_id": "1999-025EWU",
        "meta_epoch": "2025-12-21T04:50:00.684384",
        "meta_mean_motion": 13.83836101,
        "meta_eccentricity": 0.014203,
        "meta_inclination": 98.9696,
        "meta_ra_of_asc_node": 144.3746,
        "meta_arg_of_pericenter": 8.7318,
        "meta_mean_anomaly": 351.626,
        "meta_ephemeris_type": 0,
        "meta_classification_type": "U",
        "meta_norad_cat_id": 40688,
        "meta_element_set_no": 999,
        "meta_rev_at_epoch": 30034,
        "meta_bstar": 0.00031609,
        "meta_mean_motion_dot": 3.37e-06,
        "meta_mean_motion_ddot": 0,
        "tle_line1": "1 40688U 99025EWU 25355.20139681  .00000337  00000+0  31609-3 0  9995",
        "tle_line2": "2 40688  98.9696 144.3746 0142030   8.7318 351.6260 13.83836101300348"
      },
      "geometry": {
        "type": "Point",
        "coordinates": [
          -60.90227756987811,
          -70.50701647632974
        ]
      }
    },
    {
      "type": "Feature",
      "properties": {
        "norad_id": 40689,
        "name": "FENGYUN 1C DEB",
        "group": "fengyun-1c-debris",
        "lat": 32.49717243921721,
        "lon": -92.00220931439718,
        "alt_km": 845.032156860515,
        "timestamp": "2025-12-22T11:33:20.729820+00:00",
        "meta_object_name": "FENGYUN 1C DEB",
        "meta_object_id": "1999-025EWV",
        "meta_epoch": "2025-12-15T14:00:17.692704",
        "meta_mean_motion": 13.64713186,
        "meta_eccentricity": 0.03107205,
        "meta_inclination": 99.1258,
        "meta_ra_of_asc_node": 267.381,
        "meta_arg_of_pericenter": 93.9269,
        "meta_mean_anomaly": 269.7453,
        "meta_ephemeris_type": 0,
        "meta_classification_type": "U",
        "meta_norad_cat_id": 40689,
        "meta_element_set_no": 999,
        "meta_rev_at_epoch": 54922,
        "meta_bstar": 0.0014500265,
        "meta_mean_motion_dot": 1.584e-05,
        "meta_mean_motion_ddot": 0,
        "tle_line1": "1 40689U 99025EWV 25349.58353811  .00001584  00000+0  14500-2 0  9998",
        "tle_line2": "2 40689  99.1258 267.3810 0310720  93.9269 269.7453 13.64713186549229"
      },
      "geometry": {
        "type": "Point",
        "coordinates": [
          -92.00220931439718,
          32.49717243921721
        ]
      }
    },
    {
      "type": "Feature",
      "properties": {
        "norad_id": 40691,
        "name": "FENGYUN 1C DEB",
        "group": "fengyun-1c-debris",
        "lat": -49.26264156241477,
        "lon": 39.15916207051414,
        "alt_km": 850.4803158836876,
        "timestamp": "2025-12-22T11:33:20.729830+00:00",
        "meta_object_name": "FENGYUN 1C DEB",
        "meta_object_id": "1999-025EWX",
        "meta_epoch": "2025-12-03T08:15:02.306016",
        "meta_mean_motion": 13.89944729,
        "meta_eccentricity": 0.0128434,
        "meta_inclination": 99.0573,
        "meta_ra_of_asc_node": 9.8547,
        "meta_arg_of_pericenter": 336.6089,
        "meta_mean_anomaly": 22.9259,
        "meta_ephemeris_type": 0,
        "meta_classification_type": "U",
        "meta_norad_cat_id": 40691,
        "meta_element_set_no": 999,
        "meta_rev_at_epoch": 55305,
        "meta_bstar": 0.00023937,
        "meta_mean_motion_dot": 2.71e-06,
        "meta_mean_motion_ddot": 0,
        "tle_line1": "1 40691U 99025EWX 25337.34377669  .00000271  00000+0  23937-3 0  9996",
        "tle_line2": "2 40691  99.0573   9.8547 0128434 336.6089  22.9259 13.89944729553058"
      },
      "geometry": {
        "type": "Point",
        "coordinates": [
          39.15916207051414,
          -49.26264156241477
        ]
      }
    },
    {
      "type": "Feature",
      "properties": {
        "norad_id": 40695,
        "name": "FENGYUN 1C DEB",
        "group": "fengyun-1c-debris",
        "lat": -4.800553151512287,
        "lon": 116.67457706873266,
        "alt_km": 597.8158063852188,
        "timestamp": "2025-12-22T11:33:20.729841+00:00",
        "meta_object_name": "FENGYUN 1C DEB",
        "meta_object_id": "1999-025EXB",
        "meta_epoch": "2025-12-22T01:38:51.451584",
        "meta_mean_motion": 14.50984751,
        "meta_eccentricity": 0.0280442,
        "meta_inclination": 99.4261,
        "meta_ra_of_asc_node": 115.4124,
        "meta_arg_of_pericenter": 305.2879,
        "meta_mean_anomaly": 52.2372,
        "meta_ephemeris_type": 0,
        "meta_classification_type": "U",
        "meta_norad_cat_id": 40695,
        "meta_element_set_no": 999,
        "meta_rev_at_epoch": 32001,
        "meta_bstar": 0.00020128,
        "meta_mean_motion_dot": 1.247e-05,
        "meta_mean_motion_ddot": 0,
        "tle_line1": "1 40695U 99025EXB 25356.06865106  .00001247  00000+0  20128-3 0  9991",
        "tle_line2": "2 40695  99.4261 115.4124 0280442 305.2879  52.2372 14.50984751320010"
      },
      "geometry": {
        "type": "Point",
        "coordinates": [
          116.67457706873266,
          -4.800553151512287
        ]
      }
    },
    {
      "type": "Feature",
      "properties": {
        "norad_id": 40696,
        "name": "FENGYUN 1C DEB",
        "group": "fengyun-1c-debris",
        "lat": 43.654866939475056,
        "lon": 171.63601775144107,
        "alt_km": 957.2854586695939,
        "timestamp": "2025-12-22T11:33:20.729851+00:00",
        "meta_object_name": "FENGYUN 1C DEB",
        "meta_object_id": "1999-025EXC",
        "meta_epoch": "2025-12-17T05:24:20.221920",
        "meta_mean_motion": 13.96744083,
        "meta_eccentricity": 0.00795529,
        "meta_inclination": 98.9563,
        "meta_ra_of_asc_node": 337.8647,
        "meta_arg_of_pericenter": 345.1128,
        "meta_mean_anomaly": 14.7694,
        "meta_ephemeris_type": 0,
        "meta_classification_type": "U",
        "meta_norad_cat_id": 40696,
        "meta_element_set_no": 999,
        "meta_rev_at_epoch": 55742,
        "meta_bstar": 8.1397831e-05,
        "meta_mean_motion_dot": 7.3e-07,
        "meta_mean_motion_ddot": 0,
        "tle_line1": "1 40696U 99025EXC 25351.22523405  .00000073  00000+0  81398-4 0  9991",
        "tle_line2": "2 40696  98.9563 337.8647 0079552 345.1128  14.7694 13.96744083557426"
      },
      "geometry": {
        "type": "Point",
        "coordinates": [
          171.63601775144107,
          43.654866939475056
        ]
      }
    },
    {
      "type": "Feature",
      "properties": {
        "norad_id": 41003,
        "name": "FENGYUN 1C DEB",
        "group": "fengyun-1c-debris",
        "lat": -4.162377404674948,
        "lon": 95.94129772378014,
        "alt_km": 643.5310162432443,
        "timestamp": "2025-12-22T11:33:20.729861+00:00",
        "meta_object_name": "FENGYUN 1C DEB",
        "meta_object_id": "1999-025EXH",
        "meta_epoch": "2025-12-18T12:10:10.012512",
        "meta_mean_motion": 14.73078069,
        "meta_eccentricity": 0.00691513,
        "meta_inclination": 98.9664,
        "meta_ra_of_asc_node": 272.2138,
        "meta_arg_of_pericenter": 274.1099,
        "meta_mean_anomaly": 85.2204,
        "meta_ephemeris_type": 0,
        "meta_classification_type": "U",
        "meta_norad_cat_id": 41003,
        "meta_element_set_no": 999,
        "meta_rev_at_epoch": 52505,
        "meta_bstar": 0.0031269645,
        "meta_mean_motion_dot": 0.00020893,
        "meta_mean_motion_ddot": 0,
        "tle_line1": "1 41003U 99025EXH 25352.50706033  .00020893  00000+0  31270-2 0  9990",
        "tle_line2": "2 41003  98.9664 272.2138 0069151 274.1099  85.2204 14.73078069525054"
      },
      "geometry": {
        "type": "Point",
        "coordinates": [
          95.94129772378014,
          -4.162377404674948
        ]
      }
    }
  ]
}